GLOBALSTAR M035         
1 25851U 99037A   25150.59281448 -.00000055  00000+0  33192-3 0  9994
2 25851  51.9943  94.2005 0014149 314.4206 216.1622 11.04538509 94316
GLOBALSTAR M032         
1 25852U 99037B   25150.64601796 -.00000047  00000+0  64033-3 0  9992
2 25852  51.9961 280.4918 0012759 136.7544 223.4259 11.19060676132821
GLOBALSTAR M051         
1 25853U 99037C   25151.51479891 -.00000061  00000+0  27988-3 0  9993
2 25853  51.9797  81.1096 0000272 150.0733 210.0094 11.42204998130503
GLOBALSTAR M030         
1 25854U 99037D   25151.55595580 -.00000089  00000+0 -29900-3 0  9999
2 25854  51.9877 248.1776 0002846  21.8776 338.2162 11.55109999148220
GLOBALSTAR M048         
1 25872U 99041A   25150.91358639 -.00000054  00000+0  42736-3 0  9998
2 25872  51.9400  16.9282 0013423 151.8573 221.0055 11.33856918123024
GLOBALSTAR M026         
1 25873U 99041B   25150.92744221  .00000082  00000+0  53653-2 0  9995
2 25873  51.9988 211.5998 0002424 235.3635 295.4966 11.06840698146578
GLOBALSTAR M043         
1 25874U 99041C   25150.71231569 -.00000090  00000+0 -64355-3 0  9992
2 25874  51.9372 124.3528 0013651 283.4436 248.0599 11.25694477120901
GLOBALSTAR M028         
1 25875U 99041D   25151.52890053 -.00000046  00000+0  35557-3 0  9994
2 25875  51.9619 242.7385 0063189  35.7902 324.7170 12.50583196188128
